SL-14 R/B               
1 16792U 86046B   26074.93662512  .00000461  00000+0  50238-4 0  9994
2 16792  82.4784  74.2771 0022416 203.8627 156.1553 14.85596587127331
SL-14 R/B               
1 16882U 86055B   26074.61281402  .00000392  00000+0  42363-4 0  9997
2 16882  82.5189 121.1064 0017731 316.0449 199.3654 14.85647906120247
AJISAI (EGS)            
1 16908U 86061A   26074.98570970 -.00000091  00000+0  45882-4 0  9990
2 16908  50.0085  73.9863 0011286 303.2641 154.2035 12.44515670468785
SL-14 R/B               
1 17567U 87024B   26074.96774643  .00000445  00000+0  47899-4 0  9995
2 17567  82.5243  86.8611 0016876 237.3220 122.6369 14.86138092 89063
COSMOS 1833             
1 17589U 87027A   26074.94818940 -.00000207  00000+0 -84917-4 0  9999
2 17589  70.9209 312.8656 0023952 205.6386 154.3550 14.13052964 11203
SL-16 R/B               
1 17590U 87027B   26074.90371860  .00000012  00000+0  29571-4 0  9999
2 17590  70.9992 263.3992 0003156 128.5720 231.5687 14.17166689 16226
SL-14 R/B               
1 17912U 87038B   26074.62912558  .00000401  00000+0  43606-4 0  9990
2 17912  82.4991 291.2118 0020159 141.4998 218.7661 14.85374560 80116
COSMOS 1844             
1 17973U 87041A   26074.90600206 -.00000096  00000+0 -24500-4 0  9990
2 17973  70.9005  21.0636 0030335   8.7388 351.4255 14.14551128  4467
SL-14 R/B               
1 18153U 87055B   26074.80703824  .00000461  00000+0  50290-4 0  9994
2 18153  82.5028 343.2675 0020591 357.8940   2.2186 14.85636431 70847
COSMOS 1867             
1 18187U 87060A   26074.93839337 -.00000011  00000+0  33601-4 0  9999
2 18187  65.0101 289.2058 0014586 279.0350  80.9084 14.31503965 20833
SL-14 R/B               
1 18749U 88001B   26074.80278759  .00000512  00000+0  56340-4 0  9990
2 18749  82.5159 189.6120 0017230 214.2450 145.7656 14.85535327 42934
COSMOS 1933             
1 18958U 88020A   26074.92043391  .00003817  00000+0  18604-3 0  9999
2 18958  82.5104 244.7456 0004379 162.0450 198.0939 15.18047102 51178
