CCSDS_OMM_VERS = 2.0
CREATION_DATE  = 
ORIGINATOR     = 

OBJECT_NAME    = SL-14 R/B
OBJECT_ID      = 1986-046B
CENTER_NAME    = EARTH
REF_FRAME      = TEME
TIME_SYSTEM    = UTC
MEAN_ELEMENT_THEORY = SGP/SGP4

EPOCH          = 2026-03-15T22:28:44.410368
MEAN_MOTION    = 14.85596587
ECCENTRICITY   = .00224162
INCLINATION    = 82.4784
RA_OF_ASC_NODE = 74.2771
ARG_OF_PERICENTER = 203.8627
MEAN_ANOMALY   = 156.1553

EPHEMERIS_TYPE = 0
CLASSIFICATION_TYPE = U
NORAD_CAT_ID   = 16792
ELEMENT_SET_NO = 999
REV_AT_EPOCH   = 12733
BSTAR          = .50237573E-4
MEAN_MOTION_DOT = .461E-5
MEAN_MOTION_DDOT = 0

CCSDS_OMM_VERS = 2.0
CREATION_DATE  = 
ORIGINATOR     = 

OBJECT_NAME    = SL-14 R/B
OBJECT_ID      = 1986-055B
CENTER_NAME    = EARTH
REF_FRAME      = TEME
TIME_SYSTEM    = UTC
MEAN_ELEMENT_THEORY = SGP/SGP4

EPOCH          = 2026-03-15T14:42:27.131328
MEAN_MOTION    = 14.85647906
ECCENTRICITY   = .00177317
INCLINATION    = 82.5189
RA_OF_ASC_NODE = 121.1064
ARG_OF_PERICENTER = 316.0449
MEAN_ANOMALY   = 199.3654

EPHEMERIS_TYPE = 0
CLASSIFICATION_TYPE = U
NORAD_CAT_ID   = 16882
ELEMENT_SET_NO = 999
REV_AT_EPOCH   = 12024
BSTAR          = .42362932E-4
MEAN_MOTION_DOT = .392E-5
MEAN_MOTION_DDOT = 0

CCSDS_OMM_VERS = 2.0
CREATION_DATE  = 
ORIGINATOR     = 

OBJECT_NAME    = AJISAI (EGS)
OBJECT_ID      = 1986-061A
CENTER_NAME    = EARTH
REF_FRAME      = TEME
TIME_SYSTEM    = UTC
MEAN_ELEMENT_THEORY = SGP/SGP4

EPOCH          = 2026-03-15T23:39:25.318080
MEAN_MOTION    = 12.44515670
ECCENTRICITY   = .00112863
INCLINATION    = 50.0085
RA_OF_ASC_NODE = 73.9863
ARG_OF_PERICENTER = 303.2641
MEAN_ANOMALY   = 154.2035

EPHEMERIS_TYPE = 0
CLASSIFICATION_TYPE = U
NORAD_CAT_ID   = 16908
ELEMENT_SET_NO = 999
REV_AT_EPOCH   = 46878
BSTAR          = .45882027E-4
MEAN_MOTION_DOT = -.91E-6
MEAN_MOTION_DDOT = 0

CCSDS_OMM_VERS = 2.0
CREATION_DATE  = 
ORIGINATOR     = 

OBJECT_NAME    = SL-14 R/B
OBJECT_ID      = 1987-024B
CENTER_NAME    = EARTH
REF_FRAME      = TEME
TIME_SYSTEM    = UTC
MEAN_ELEMENT_THEORY = SGP/SGP4

EPOCH          = 2026-03-15T23:13:33.291552
MEAN_MOTION    = 14.86138092
ECCENTRICITY   = .00168761
INCLINATION    = 82.5243
RA_OF_ASC_NODE = 86.8611
ARG_OF_PERICENTER = 237.3220
MEAN_ANOMALY   = 122.6369

EPHEMERIS_TYPE = 0
CLASSIFICATION_TYPE = U
NORAD_CAT_ID   = 17567
ELEMENT_SET_NO = 999
REV_AT_EPOCH   = 8906
BSTAR          = .47898781E-4
MEAN_MOTION_DOT = .445E-5
MEAN_MOTION_DDOT = 0

CCSDS_OMM_VERS = 2.0
CREATION_DATE  = 
ORIGINATOR     = 

OBJECT_NAME    = COSMOS 1833
OBJECT_ID      = 1987-027A
CENTER_NAME    = EARTH
REF_FRAME      = TEME
TIME_SYSTEM    = UTC
MEAN_ELEMENT_THEORY = SGP/SGP4

EPOCH          = 2026-03-15T22:45:23.564160
MEAN_MOTION    = 14.13052964
ECCENTRICITY   = .00239525
INCLINATION    = 70.9209
RA_OF_ASC_NODE = 312.8656
ARG_OF_PERICENTER = 205.6386
MEAN_ANOMALY   = 154.3550

EPHEMERIS_TYPE = 0
CLASSIFICATION_TYPE = U
NORAD_CAT_ID   = 17589
ELEMENT_SET_NO = 999
REV_AT_EPOCH   = 1120
BSTAR          = -.84916805E-4
MEAN_MOTION_DOT = -.207E-5
MEAN_MOTION_DDOT = 0

CCSDS_OMM_VERS = 2.0
CREATION_DATE  = 
ORIGINATOR     = 

OBJECT_NAME    = SL-16 R/B
OBJECT_ID      = 1987-027B
CENTER_NAME    = EARTH
REF_FRAME      = TEME
TIME_SYSTEM    = UTC
MEAN_ELEMENT_THEORY = SGP/SGP4

EPOCH          = 2026-03-15T21:41:21.287040
MEAN_MOTION    = 14.17166689
ECCENTRICITY   = .00031562
INCLINATION    = 70.9992
RA_OF_ASC_NODE = 263.3992
ARG_OF_PERICENTER = 128.5720
MEAN_ANOMALY   = 231.5687

EPHEMERIS_TYPE = 0
CLASSIFICATION_TYPE = U
NORAD_CAT_ID   = 17590
ELEMENT_SET_NO = 999
REV_AT_EPOCH   = 1622
BSTAR          = .29571432E-4
MEAN_MOTION_DOT = .12E-6
MEAN_MOTION_DDOT = 0

CCSDS_OMM_VERS = 2.0
CREATION_DATE  = 
ORIGINATOR     = 

OBJECT_NAME    = SL-14 R/B
OBJECT_ID      = 1987-038B
CENTER_NAME    = EARTH
REF_FRAME      = TEME
TIME_SYSTEM    = UTC
MEAN_ELEMENT_THEORY = SGP/SGP4

EPOCH          = 2026-03-15T15:05:56.450112
MEAN_MOTION    = 14.85374560
ECCENTRICITY   = .00201591
INCLINATION    = 82.4991
RA_OF_ASC_NODE = 291.2118
ARG_OF_PERICENTER = 141.4998
MEAN_ANOMALY   = 218.7661

EPHEMERIS_TYPE = 0
CLASSIFICATION_TYPE = U
NORAD_CAT_ID   = 17912
ELEMENT_SET_NO = 999
REV_AT_EPOCH   = 8011
BSTAR          = .43605947E-4
MEAN_MOTION_DOT = .401E-5
MEAN_MOTION_DDOT = 0

CCSDS_OMM_VERS = 2.0
CREATION_DATE  = 
ORIGINATOR     = 

OBJECT_NAME    = COSMOS 1844
OBJECT_ID      = 1987-041A
CENTER_NAME    = EARTH
REF_FRAME      = TEME
TIME_SYSTEM    = UTC
MEAN_ELEMENT_THEORY = SGP/SGP4

EPOCH          = 2026-03-15T21:44:38.577984
MEAN_MOTION    = 14.14551128
ECCENTRICITY   = .00303354
INCLINATION    = 70.9005
RA_OF_ASC_NODE = 21.0636
ARG_OF_PERICENTER = 8.7388
MEAN_ANOMALY   = 351.4255

EPHEMERIS_TYPE = 0
CLASSIFICATION_TYPE = U
NORAD_CAT_ID   = 17973
ELEMENT_SET_NO = 999
REV_AT_EPOCH   = 446
BSTAR          = -.24499885E-4
MEAN_MOTION_DOT = -.96E-6
MEAN_MOTION_DDOT = 0

CCSDS_OMM_VERS = 2.0
CREATION_DATE  = 
ORIGINATOR     = 

OBJECT_NAME    = SL-14 R/B
OBJECT_ID      = 1987-055B
CENTER_NAME    = EARTH
REF_FRAME      = TEME
TIME_SYSTEM    = UTC
MEAN_ELEMENT_THEORY = SGP/SGP4

EPOCH          = 2026-03-15T19:22:08.103936
MEAN_MOTION    = 14.85636431
ECCENTRICITY   = .00205912
INCLINATION    = 82.5028
RA_OF_ASC_NODE = 343.2675
ARG_OF_PERICENTER = 357.8940
MEAN_ANOMALY   = 2.2186

EPHEMERIS_TYPE = 0
CLASSIFICATION_TYPE = U
NORAD_CAT_ID   = 18153
ELEMENT_SET_NO = 999
REV_AT_EPOCH   = 7084
BSTAR          = .50290228E-4
MEAN_MOTION_DOT = .461E-5
MEAN_MOTION_DDOT = 0

CCSDS_OMM_VERS = 2.0
CREATION_DATE  = 
ORIGINATOR     = 

OBJECT_NAME    = COSMOS 1867
OBJECT_ID      = 1987-060A
CENTER_NAME    = EARTH
REF_FRAME      = TEME
TIME_SYSTEM    = UTC
MEAN_ELEMENT_THEORY = SGP/SGP4

EPOCH          = 2026-03-15T22:31:17.187168
MEAN_MOTION    = 14.31503965
ECCENTRICITY   = .00145868
INCLINATION    = 65.0101
RA_OF_ASC_NODE = 289.2058
ARG_OF_PERICENTER = 279.0350
MEAN_ANOMALY   = 80.9084

EPHEMERIS_TYPE = 0
CLASSIFICATION_TYPE = U
NORAD_CAT_ID   = 18187
ELEMENT_SET_NO = 999
REV_AT_EPOCH   = 2083
BSTAR          = .33601204E-4
MEAN_MOTION_DOT = -.11E-6
MEAN_MOTION_DDOT = 0

CCSDS_OMM_VERS = 2.0
CREATION_DATE  = 
ORIGINATOR     = 

OBJECT_NAME    = SL-14 R/B
OBJECT_ID      = 1988-001B
CENTER_NAME    = EARTH
REF_FRAME      = TEME
TIME_SYSTEM    = UTC
MEAN_ELEMENT_THEORY = SGP/SGP4

EPOCH          = 2026-03-15T19:16:00.847776
MEAN_MOTION    = 14.85535327
ECCENTRICITY   = .00172307
INCLINATION    = 82.5159
RA_OF_ASC_NODE = 189.6120
ARG_OF_PERICENTER = 214.2450
MEAN_ANOMALY   = 145.7656

EPHEMERIS_TYPE = 0
CLASSIFICATION_TYPE = U
NORAD_CAT_ID   = 18749
ELEMENT_SET_NO = 999
REV_AT_EPOCH   = 4293
BSTAR          = .5633964E-4
MEAN_MOTION_DOT = .512E-5
MEAN_MOTION_DDOT = 0

CCSDS_OMM_VERS = 2.0
CREATION_DATE  = 
ORIGINATOR     = 

OBJECT_NAME    = COSMOS 1933
OBJECT_ID      = 1988-020A
CENTER_NAME    = EARTH
REF_FRAME      = TEME
TIME_SYSTEM    = UTC
MEAN_ELEMENT_THEORY = SGP/SGP4

EPOCH          = 2026-03-15T22:05:25.489824
MEAN_MOTION    = 15.18047102
ECCENTRICITY   = .00043798
INCLINATION    = 82.5104
RA_OF_ASC_NODE = 244.7456
ARG_OF_PERICENTER = 162.0450
MEAN_ANOMALY   = 198.0939

EPHEMERIS_TYPE = 0
CLASSIFICATION_TYPE = U
NORAD_CAT_ID   = 18958
ELEMENT_SET_NO = 999
REV_AT_EPOCH   = 5117
BSTAR          = .18603676E-3
MEAN_MOTION_DOT = .3817E-4
MEAN_MOTION_DDOT = 0

